XCUBE-1                 
1 62400U 24247Z   26068.48297321  .00009773  00000+0  36224-3 0  9994
2 62400  44.9938 117.7807 0005235 331.1499  28.9094 15.27910558 67702
STARLINK-33907          
1 63769U 25089U   26067.03468254  .00034592  00000+0  12589-2 0  9997
2 63769  43.0023  54.6456 0001096 197.4662 162.6152 15.27627909 48650
